CCSDS_OMM_VERS = 2.0
CREATION_DATE  = 
ORIGINATOR     = 

OBJECT_NAME    = STARLINK-36143
OBJECT_ID      = 2025-294AC
CENTER_NAME    = EARTH
REF_FRAME      = TEME
TIME_SYSTEM    = UTC
MEAN_ELEMENT_THEORY = SGP/SGP4

EPOCH          = 2025-12-31T06:00:02.000160
MEAN_MOTION    = 15.50580288
ECCENTRICITY   = .00014073
INCLINATION    = 43.0002
RA_OF_ASC_NODE = 70.0416
ARG_OF_PERICENTER = 273.5236
MEAN_ANOMALY   = 288.7832

EPHEMERIS_TYPE = 0
CLASSIFICATION_TYPE = U
NORAD_CAT_ID   = 67056
ELEMENT_SET_NO = 999
REV_AT_EPOCH   = 327
BSTAR          = -.12292518E-2
MEAN_MOTION_DOT = -.71801E-3
MEAN_MOTION_DDOT = 0

CCSDS_OMM_VERS = 2.0
CREATION_DATE  = 
ORIGINATOR     = 

OBJECT_NAME    = STARLINK-36141
OBJECT_ID      = 2025-294AD
CENTER_NAME    = EARTH
REF_FRAME      = TEME
TIME_SYSTEM    = UTC
MEAN_ELEMENT_THEORY = SGP/SGP4

EPOCH          = 2025-12-31T06:00:02.000160
MEAN_MOTION    = 15.50557370
ECCENTRICITY   = .00014592
INCLINATION    = 43.0002
RA_OF_ASC_NODE = 70.0465
ARG_OF_PERICENTER = 270.5171
MEAN_ANOMALY   = 289.9128

EPHEMERIS_TYPE = 0
CLASSIFICATION_TYPE = U
NORAD_CAT_ID   = 67057
ELEMENT_SET_NO = 999
REV_AT_EPOCH   = 319
BSTAR          = -.8232034E-3
MEAN_MOTION_DOT = -.48301E-3
MEAN_MOTION_DDOT = 0

CCSDS_OMM_VERS = 2.0
CREATION_DATE  = 
ORIGINATOR     = 

OBJECT_NAME    = STARLINK-35767
OBJECT_ID      = 2025-294AE
CENTER_NAME    = EARTH
REF_FRAME      = TEME
TIME_SYSTEM    = UTC
MEAN_ELEMENT_THEORY = SGP/SGP4

EPOCH          = 2025-12-31T06:00:02.000160
MEAN_MOTION    = 15.50595464
ECCENTRICITY   = .00011599
INCLINATION    = 43.0005
RA_OF_ASC_NODE = 70.0515
ARG_OF_PERICENTER = 265.7370
MEAN_ANOMALY   = 292.7419

EPHEMERIS_TYPE = 0
CLASSIFICATION_TYPE = U
NORAD_CAT_ID   = 67058
ELEMENT_SET_NO = 999
REV_AT_EPOCH   = 307
BSTAR          = -.17603882E-2
MEAN_MOTION_DOT = -.102334E-2
MEAN_MOTION_DDOT = 0

CCSDS_OMM_VERS = 2.0
CREATION_DATE  = 
ORIGINATOR     = 

OBJECT_NAME    = HULIANWANG DIGUI-119
OBJECT_ID      = 2025-295A
CENTER_NAME    = EARTH
REF_FRAME      = TEME
TIME_SYSTEM    = UTC
MEAN_ELEMENT_THEORY = SGP/SGP4

EPOCH          = 2025-12-31T06:54:10.539072
MEAN_MOTION    = 14.24622729
ECCENTRICITY   = .0013935
INCLINATION    = 50.0045
RA_OF_ASC_NODE = 294.0204
ARG_OF_PERICENTER = 312.0665
MEAN_ANOMALY   = 47.9062

EPHEMERIS_TYPE = 0
CLASSIFICATION_TYPE = U
NORAD_CAT_ID   = 67059
ELEMENT_SET_NO = 999
REV_AT_EPOCH   = 276
BSTAR          = .27501782E-3
MEAN_MOTION_DOT = .484E-5
MEAN_MOTION_DDOT = 0

CCSDS_OMM_VERS = 2.0
CREATION_DATE  = 
ORIGINATOR     = 

OBJECT_NAME    = HULIANWANG DIGUI-120
OBJECT_ID      = 2025-295B
CENTER_NAME    = EARTH
REF_FRAME      = TEME
TIME_SYSTEM    = UTC
MEAN_ELEMENT_THEORY = SGP/SGP4

EPOCH          = 2025-12-31T06:47:08.398176
MEAN_MOTION    = 14.24624378
ECCENTRICITY   = .00133046
INCLINATION    = 50.0053
RA_OF_ASC_NODE = 293.9951
ARG_OF_PERICENTER = 312.6797
MEAN_ANOMALY   = 47.2995

EPHEMERIS_TYPE = 0
CLASSIFICATION_TYPE = U
NORAD_CAT_ID   = 67060
ELEMENT_SET_NO = 999
REV_AT_EPOCH   = 276
BSTAR          = .29878732E-3
MEAN_MOTION_DOT = .54E-5
MEAN_MOTION_DDOT = 0

CCSDS_OMM_VERS = 2.0
CREATION_DATE  = 
ORIGINATOR     = 

OBJECT_NAME    = HULIANWANG DIGUI-121
OBJECT_ID      = 2025-295C
CENTER_NAME    = EARTH
REF_FRAME      = TEME
TIME_SYSTEM    = UTC
MEAN_ELEMENT_THEORY = SGP/SGP4

EPOCH          = 2025-12-31T06:49:41.853216
MEAN_MOTION    = 14.24641242
ECCENTRICITY   = .00132107
INCLINATION    = 50.0016
RA_OF_ASC_NODE = 293.9907
ARG_OF_PERICENTER = 311.9011
MEAN_ANOMALY   = 48.0775

EPHEMERIS_TYPE = 0
CLASSIFICATION_TYPE = U
NORAD_CAT_ID   = 67061
ELEMENT_SET_NO = 999
REV_AT_EPOCH   = 276
BSTAR          = .29285732E-3
MEAN_MOTION_DOT = .526E-5
MEAN_MOTION_DDOT = 0

CCSDS_OMM_VERS = 2.0
CREATION_DATE  = 
ORIGINATOR     = 

OBJECT_NAME    = HULIANWANG DIGUI-122
OBJECT_ID      = 2025-295D
CENTER_NAME    = EARTH
REF_FRAME      = TEME
TIME_SYSTEM    = UTC
MEAN_ELEMENT_THEORY = SGP/SGP4

EPOCH          = 2025-12-31T06:45:48.626784
MEAN_MOTION    = 14.24616387
ECCENTRICITY   = .00130489
INCLINATION    = 50.0047
RA_OF_ASC_NODE = 293.9881
ARG_OF_PERICENTER = 317.8559
MEAN_ANOMALY   = 42.1350

EPHEMERIS_TYPE = 0
CLASSIFICATION_TYPE = U
NORAD_CAT_ID   = 67062
ELEMENT_SET_NO = 999
REV_AT_EPOCH   = 276
BSTAR          = .30597542E-3
MEAN_MOTION_DOT = .556E-5
MEAN_MOTION_DDOT = 0

CCSDS_OMM_VERS = 2.0
CREATION_DATE  = 
ORIGINATOR     = 

OBJECT_NAME    = HULIANWANG DIGUI-123
OBJECT_ID      = 2025-295E
CENTER_NAME    = EARTH
REF_FRAME      = TEME
TIME_SYSTEM    = UTC
MEAN_ELEMENT_THEORY = SGP/SGP4

EPOCH          = 2025-12-31T06:44:20.972256
MEAN_MOTION    = 14.24622010
ECCENTRICITY   = .00119914
INCLINATION    = 50.0054
RA_OF_ASC_NODE = 293.9858
ARG_OF_PERICENTER = 317.3683
MEAN_ANOMALY   = 42.6299

EPHEMERIS_TYPE = 0
CLASSIFICATION_TYPE = U
NORAD_CAT_ID   = 67063
ELEMENT_SET_NO = 999
REV_AT_EPOCH   = 276
BSTAR          = .31018068E-3
MEAN_MOTION_DOT = .566E-5
MEAN_MOTION_DDOT = 0

CCSDS_OMM_VERS = 2.0
CREATION_DATE  = 
ORIGINATOR     = 

OBJECT_NAME    = HULIANWANG DIGUI-124
OBJECT_ID      = 2025-295F
CENTER_NAME    = EARTH
REF_FRAME      = TEME
TIME_SYSTEM    = UTC
MEAN_ELEMENT_THEORY = SGP/SGP4

EPOCH          = 2025-12-31T06:42:57.753504
MEAN_MOTION    = 14.24625964
ECCENTRICITY   = .00118624
INCLINATION    = 50.0013
RA_OF_ASC_NODE = 293.9630
ARG_OF_PERICENTER = 311.0394
MEAN_ANOMALY   = 48.9494

EPHEMERIS_TYPE = 0
CLASSIFICATION_TYPE = U
NORAD_CAT_ID   = 67064
ELEMENT_SET_NO = 999
REV_AT_EPOCH   = 276
BSTAR          = .31177105E-3
MEAN_MOTION_DOT = .57E-5
MEAN_MOTION_DDOT = 0

CCSDS_OMM_VERS = 2.0
CREATION_DATE  = 
ORIGINATOR     = 

OBJECT_NAME    = HULIANWANG DIGUI-125
OBJECT_ID      = 2025-295G
CENTER_NAME    = EARTH
REF_FRAME      = TEME
TIME_SYSTEM    = UTC
MEAN_ELEMENT_THEORY = SGP/SGP4

EPOCH          = 2025-12-31T06:41:25.388448
MEAN_MOTION    = 14.24633833
ECCENTRICITY   = .00119833
INCLINATION    = 50.0005
RA_OF_ASC_NODE = 293.9543
ARG_OF_PERICENTER = 319.0016
MEAN_ANOMALY   = 40.9995

EPHEMERIS_TYPE = 0
CLASSIFICATION_TYPE = U
NORAD_CAT_ID   = 67065
ELEMENT_SET_NO = 999
REV_AT_EPOCH   = 276
BSTAR          = .31705467E-3
MEAN_MOTION_DOT = .583E-5
MEAN_MOTION_DDOT = 0

CCSDS_OMM_VERS = 2.0
CREATION_DATE  = 
ORIGINATOR     = 

OBJECT_NAME    = HULIANWANG DIGUI-126
OBJECT_ID      = 2025-295H
CENTER_NAME    = EARTH
REF_FRAME      = TEME
TIME_SYSTEM    = UTC
MEAN_ELEMENT_THEORY = SGP/SGP4

EPOCH          = 2025-12-31T06:40:00.297408
MEAN_MOTION    = 14.24654141
ECCENTRICITY   = .00112723
INCLINATION    = 50.0008
RA_OF_ASC_NODE = 293.9489
ARG_OF_PERICENTER = 312.5915
MEAN_ANOMALY   = 47.4046

EPHEMERIS_TYPE = 0
CLASSIFICATION_TYPE = U
NORAD_CAT_ID   = 67066
ELEMENT_SET_NO = 999
REV_AT_EPOCH   = 276
BSTAR          = .32123333E-3
MEAN_MOTION_DOT = .593E-5
MEAN_MOTION_DDOT = 0

CCSDS_OMM_VERS = 2.0
CREATION_DATE  = 
ORIGINATOR     = 

OBJECT_NAME    = HULIANWANG DIGUI-127
OBJECT_ID      = 2025-295J
CENTER_NAME    = EARTH
REF_FRAME      = TEME
TIME_SYSTEM    = UTC
MEAN_ELEMENT_THEORY = SGP/SGP4

EPOCH          = 2025-12-30T12:07:30.004032
MEAN_MOTION    = 14.24667172
ECCENTRICITY   = .001068
INCLINATION    = 50.0048
RA_OF_ASC_NODE = 297.2058
ARG_OF_PERICENTER = 316.5628
MEAN_ANOMALY   = 43.4443

EPHEMERIS_TYPE = 0
CLASSIFICATION_TYPE = U
NORAD_CAT_ID   = 67067
ELEMENT_SET_NO = 999
REV_AT_EPOCH   = 265
BSTAR          = -.46454E-3
MEAN_MOTION_DOT = -.1248E-4
MEAN_MOTION_DDOT = 0

