STARLINK-36143          
1 67056U 25294AC  25365.25002315 -.00071801  00000+0 -12293-2 0  9992
2 67056  43.0002  70.0416 0001407 273.5236 288.7832 15.50580288  3275
STARLINK-36141          
1 67057U 25294AD  25365.25002315 -.00048301  00000+0 -82320-3 0  9991
2 67057  43.0002  70.0465 0001459 270.5171 289.9128 15.50557370  3190
STARLINK-35767          
1 67058U 25294AE  25365.25002315 -.00102334  00000+0 -17604-2 0  9991
2 67058  43.0005  70.0515 0001159 265.7370 292.7419 15.50595464  3072
HULIANWANG DIGUI-119    
1 67059U 25295A   25365.28762198  .00000484  00000+0  27502-3 0  9998
2 67059  50.0045 294.0204 0013935 312.0665  47.9062 14.24622729  2760
HULIANWANG DIGUI-120    
1 67060U 25295B   25365.28273609  .00000540  00000+0  29879-3 0  9996
2 67060  50.0053 293.9951 0013304 312.6797  47.2995 14.24624378  2760
HULIANWANG DIGUI-121    
1 67061U 25295C   25365.28451219  .00000526  00000+0  29286-3 0  9998
2 67061  50.0016 293.9907 0013210 311.9011  48.0775 14.24641242  2762
HULIANWANG DIGUI-122    
1 67062U 25295D   25365.28181281  .00000556  00000+0  30598-3 0  9999
2 67062  50.0047 293.9881 0013048 317.8559  42.1350 14.24616387  2765
HULIANWANG DIGUI-123    
1 67063U 25295E   25365.28079829  .00000566  00000+0  31018-3 0  9993
2 67063  50.0054 293.9858 0011991 317.3683  42.6299 14.24622010  2763
HULIANWANG DIGUI-124    
1 67064U 25295F   25365.27983511  .00000570  00000+0  31177-3 0  9996
2 67064  50.0013 293.9630 0011862 311.0394  48.9494 14.24625964  2761
HULIANWANG DIGUI-125    
1 67065U 25295G   25365.27876607  .00000583  00000+0  31705-3 0  9995
2 67065  50.0005 293.9543 0011983 319.0016  40.9995 14.24633833  2761
HULIANWANG DIGUI-126    
1 67066U 25295H   25365.27778122  .00000593  00000+0  32123-3 0  9995
2 67066  50.0008 293.9489 0011272 312.5915  47.4046 14.24654141  2765
HULIANWANG DIGUI-127    
1 67067U 25295J   25364.50520838 -.00001248  00000+0 -46454-3 0  9992
2 67067  50.0048 297.2058 0010680 316.5628  43.4443 14.24667172  2659
